*******************************************************************************
Ephemeris / WWW_USER Mon Mar 24 08:49:22 2025 Pasadena, USA      / Horizons    
*******************************************************************************
Target body name: (2018 PU7)                      {source: JPL#13}
Center body name: Earth (399)                     {source: DE441}
Center-site name: Mauna Kea
*******************************************************************************
Start time      : A.D. 2019-Jan-27 04:20:00.0000 UT      
Stop  time      : A.D. 2019-Jan-27 16:48:00.0000 UT      
Step-size       : 1 minutes
*******************************************************************************
Target pole/equ : undefined
Target radii    : undefined                                                    
Center geodetic : 204.5278, 19.8260847, 4.21024   {E-lon(deg),Lat(deg),Alt(km)}
Center cylindric: 204.5278, 6006.35451, 2151.0229 {E-lon(deg),Dxy(km),Dz(km)}
Center pole/equ : ITRF93                          {East-longitude positive}
Center radii    : 6378.137, 6378.137, 6356.752 km {Equator_a, b, pole_c}       
Target primary  : Sun
Vis. interferer : MOON (R_eq= 1737.400) km        {source: DE441}
Rel. light bend : Sun                             {source: DE441}
Rel. lght bnd GM: 1.3271E+11 km^3/s^2                                          
Small-body perts: Yes                             {source: SB441-N16}
Atmos refraction: NO (AIRLESS)
RA format       : HMS
Time format     : CAL 
Calendar mode   : Mixed Julian/Gregorian
RTS-only print  : NO       
EOP file        : eop.250321.p250617                                           
EOP coverage    : DATA-BASED 1962-JAN-20 TO 2025-MAR-21. PREDICTS-> 2025-JUN-16
Units conversion: 1 au= 149597870.700 km, c= 299792.458 km/s, 1 day= 86400.0 s 
Table cut-offs 1: Elevation (-90.0deg=NO ),Airmass (>38.000=NO), Daylight (YES)
Table cut-offs 2: Solar elongation (  0.0,180.0=NO ),Local Hour Angle( 0.0=NO )
Table cut-offs 3: RA/DEC angular rate (     0.0=NO )                           
*******************************************************************************
Initial IAU76/J2000 heliocentric ecliptic osculating elements (au, days, deg.):
  EPOCH=  2458344.5 ! 2018-Aug-14.00 (TDB)         Residual RMS= .35253        
   EC= .5418411610879256   QR= .9908981152950816   TP= 2458306.0483912583      
   OM= 307.3200871504195   W=  329.2166965634538   IN= 6.906215163822786       
  Equivalent ICRF heliocentric cartesian coordinates (au, au/d):
   X= 8.533350742151261E-01  Y=-6.504796009993946E-01  Z=-2.480927258064065E-01
  VX= 1.615085148536055E-02 VY= 9.661045842052620E-03 VZ= 6.810490395822813E-03
Asteroid physical parameters (km, seconds, rotational period in hours):        
   GM= n.a.                RAD= n.a.               ROTPER= n.a.                
   H= 23.4                 G= .150                 B-V= n.a.                   
                           ALBEDO= n.a.            STYP= n.a.                  
*******************************************************************************
 Date__(UT)__HR:MN     R.A._________(ICRF)_________DEC
******************************************************
$$SOE
 2019-Jan-27 12:32  m  00 57 43.573075 +13 16 10.76545
 2019-Jan-27 12:33  m  00 57 43.639585 +13 16 11.07046
 2019-Jan-27 12:34  m  00 57 43.706098 +13 16 11.37549
 2019-Jan-27 12:35  m  00 57 43.772614 +13 16 11.68053
 2019-Jan-27 12:36  m  00 57 43.839132 +13 16 11.98558
 2019-Jan-27 12:37  m  00 57 43.905653 +13 16 12.29064
 2019-Jan-27 12:38  m  00 57 43.972177 +13 16 12.59572
 2019-Jan-27 12:39  m  00 57 44.038703 +13 16 12.90081
 2019-Jan-27 12:40  m  00 57 44.105232 +13 16 13.20592
 2019-Jan-27 12:41  m  00 57 44.171763 +13 16 13.51103
 2019-Jan-27 12:42  m  00 57 44.238297 +13 16 13.81617
 2019-Jan-27 12:43  m  00 57 44.304833 +13 16 14.12131
 2019-Jan-27 12:44  m  00 57 44.371372 +13 16 14.42647
 2019-Jan-27 12:45  m  00 57 44.437914 +13 16 14.73164
 2019-Jan-27 12:46  m  00 57 44.504458 +13 16 15.03682
 2019-Jan-27 12:47  m  00 57 44.571004 +13 16 15.34202
 2019-Jan-27 12:48  m  00 57 44.637553 +13 16 15.64724
 2019-Jan-27 12:49  m  00 57 44.704105 +13 16 15.95246
 2019-Jan-27 12:50  m  00 57 44.770659 +13 16 16.25770
 2019-Jan-27 12:51  m  00 57 44.837215 +13 16 16.56295
 2019-Jan-27 12:52  m  00 57 44.903773 +13 16 16.86822
 2019-Jan-27 12:53  m  00 57 44.970334 +13 16 17.17350
 2019-Jan-27 12:54  m  00 57 45.036898 +13 16 17.47879
 2019-Jan-27 12:55  m  00 57 45.103463 +13 16 17.78410
 2019-Jan-27 12:56  m  00 57 45.170031 +13 16 18.08942
 2019-Jan-27 12:57  m  00 57 45.236602 +13 16 18.39476
 2019-Jan-27 12:58  m  00 57 45.303174 +13 16 18.70011
 2019-Jan-27 12:59  m  00 57 45.369749 +13 16 19.00547
 2019-Jan-27 13:00  m  00 57 45.436326 +13 16 19.31085
 2019-Jan-27 13:01  m  00 57 45.502905 +13 16 19.61624
 2019-Jan-27 13:02  m  00 57 45.569487 +13 16 19.92165
 2019-Jan-27 13:03  m  00 57 45.636070 +13 16 20.22707
 2019-Jan-27 13:04  m  00 57 45.702656 +13 16 20.53250
 2019-Jan-27 13:05  m  00 57 45.769244 +13 16 20.83795
 2019-Jan-27 13:06  m  00 57 45.835835 +13 16 21.14341
 2019-Jan-27 13:07  m  00 57 45.902427 +13 16 21.44889
 2019-Jan-27 13:08  m  00 57 45.969021 +13 16 21.75438
 2019-Jan-27 13:09  m  00 57 46.035618 +13 16 22.05988
 2019-Jan-27 13:10  m  00 57 46.102216 +13 16 22.36540
 2019-Jan-27 13:11  m  00 57 46.168817 +13 16 22.67093
 2019-Jan-27 13:12  m  00 57 46.235420 +13 16 22.97648
 2019-Jan-27 13:13  m  00 57 46.302024 +13 16 23.28204
 2019-Jan-27 13:14  m  00 57 46.368631 +13 16 23.58762
 2019-Jan-27 13:15  m  00 57 46.435240 +13 16 23.89321
 2019-Jan-27 13:16  m  00 57 46.501850 +13 16 24.19881
 2019-Jan-27 13:17  m  00 57 46.568463 +13 16 24.50443
 2019-Jan-27 13:18  m  00 57 46.635077 +13 16 24.81007
 2019-Jan-27 13:19  m  00 57 46.701694 +13 16 25.11572
 2019-Jan-27 13:20  m  00 57 46.768312 +13 16 25.42138
 2019-Jan-27 13:21  m  00 57 46.834932 +13 16 25.72706
 2019-Jan-27 13:22  m  00 57 46.901554 +13 16 26.03275
 2019-Jan-27 13:23  m  00 57 46.968178 +13 16 26.33846
 2019-Jan-27 13:24  m  00 57 47.034804 +13 16 26.64418
 2019-Jan-27 13:25  m  00 57 47.101431 +13 16 26.94991
 2019-Jan-27 13:26  m  00 57 47.168060 +13 16 27.25567
 2019-Jan-27 13:27  m  00 57 47.234691 +13 16 27.56143
 2019-Jan-27 13:28  m  00 57 47.301324 +13 16 27.86721
 2019-Jan-27 13:29  m  00 57 47.367959 +13 16 28.17301
 2019-Jan-27 13:30  m  00 57 47.434595 +13 16 28.47882
 2019-Jan-27 13:31  m  00 57 47.501233 +13 16 28.78464
 2019-Jan-27 13:32  m  00 57 47.567872 +13 16 29.09048
 2019-Jan-27 13:33  m  00 57 47.634513 +13 16 29.39634
 2019-Jan-27 13:34  m  00 57 47.701156 +13 16 29.70221
 2019-Jan-27 13:35  m  00 57 47.767800 +13 16 30.00809
 2019-Jan-27 13:36  m  00 57 47.834446 +13 16 30.31399
 2019-Jan-27 13:37  m  00 57 47.901094 +13 16 30.61991
 2019-Jan-27 13:38  m  00 57 47.967743 +13 16 30.92584
 2019-Jan-27 13:39  m  00 57 48.034394 +13 16 31.23178
 2019-Jan-27 13:40  m  00 57 48.101046 +13 16 31.53774
 2019-Jan-27 13:41  m  00 57 48.167699 +13 16 31.84372
 2019-Jan-27 13:42  m  00 57 48.234355 +13 16 32.14971
 2019-Jan-27 13:43  m  00 57 48.301011 +13 16 32.45571
 2019-Jan-27 13:44  m  00 57 48.367669 +13 16 32.76173
 2019-Jan-27 13:45  m  00 57 48.434329 +13 16 33.06777
 2019-Jan-27 13:46  m  00 57 48.500989 +13 16 33.37382
 2019-Jan-27 13:47  m  00 57 48.567652 +13 16 33.67988
 2019-Jan-27 13:48  m  00 57 48.634315 +13 16 33.98597
 2019-Jan-27 13:49  m  00 57 48.700980 +13 16 34.29206
 2019-Jan-27 13:50  m  00 57 48.767647 +13 16 34.59817
 2019-Jan-27 13:51  m  00 57 48.834314 +13 16 34.90430
 2019-Jan-27 13:52  m  00 57 48.900983 +13 16 35.21044
 2019-Jan-27 13:53  m  00 57 48.967653 +13 16 35.51660
 2019-Jan-27 13:54  m  00 57 49.034324 +13 16 35.82277
 2019-Jan-27 13:55  m  00 57 49.100997 +13 16 36.12896
 2019-Jan-27 13:56  m  00 57 49.167671 +13 16 36.43517
 2019-Jan-27 13:57  m  00 57 49.234346 +13 16 36.74138
 2019-Jan-27 13:58  m  00 57 49.301022 +13 16 37.04762
 2019-Jan-27 13:59  m  00 57 49.367699 +13 16 37.35387
 2019-Jan-27 14:00  m  00 57 49.434378 +13 16 37.66013
 2019-Jan-27 14:01  m  00 57 49.501057 +13 16 37.96641
 2019-Jan-27 14:02  m  00 57 49.567738 +13 16 38.27271
 2019-Jan-27 14:03  m  00 57 49.634420 +13 16 38.57902
 2019-Jan-27 14:04  m  00 57 49.701102 +13 16 38.88535
 2019-Jan-27 14:05  m  00 57 49.767786 +13 16 39.19169
 2019-Jan-27 14:06  m  00 57 49.834471 +13 16 39.49805
 2019-Jan-27 14:07  m  00 57 49.901157 +13 16 39.80442
 2019-Jan-27 14:08  m  00 57 49.967844 +13 16 40.11081
 2019-Jan-27 14:09  m  00 57 50.034531 +13 16 40.41722
 2019-Jan-27 14:10  m  00 57 50.101220 +13 16 40.72364
 2019-Jan-27 14:11  m  00 57 50.167910 +13 16 41.03007
 2019-Jan-27 14:12  m  00 57 50.234600 +13 16 41.33652
 2019-Jan-27 14:13  m  00 57 50.301292 +13 16 41.64299
 2019-Jan-27 14:14  m  00 57 50.367984 +13 16 41.94947
 2019-Jan-27 14:15  m  00 57 50.434677 +13 16 42.25597
 2019-Jan-27 14:16  m  00 57 50.501371 +13 16 42.56249
 2019-Jan-27 14:17  m  00 57 50.568065 +13 16 42.86902
 2019-Jan-27 14:18  m  00 57 50.634761 +13 16 43.17556
 2019-Jan-27 14:19  m  00 57 50.701457 +13 16 43.48212
 2019-Jan-27 14:20  m  00 57 50.768154 +13 16 43.78870
 2019-Jan-27 14:21  m  00 57 50.834852 +13 16 44.09529
 2019-Jan-27 14:22  m  00 57 50.901550 +13 16 44.40190
 2019-Jan-27 14:23  m  00 57 50.968249 +13 16 44.70853
 2019-Jan-27 14:24  m  00 57 51.034949 +13 16 45.01517
 2019-Jan-27 14:25  m  00 57 51.101649 +13 16 45.32182
 2019-Jan-27 14:26  m  00 57 51.168350 +13 16 45.62849
 2019-Jan-27 14:27  m  00 57 51.235052 +13 16 45.93518
 2019-Jan-27 14:28  m  00 57 51.301754 +13 16 46.24188
 2019-Jan-27 14:29  m  00 57 51.368456 +13 16 46.54860
 2019-Jan-27 14:30  m  00 57 51.435160 +13 16 46.85533
 2019-Jan-27 14:31  m  00 57 51.501863 +13 16 47.16209
 2019-Jan-27 14:32  m  00 57 51.568568 +13 16 47.46885
 2019-Jan-27 14:33  m  00 57 51.635272 +13 16 47.77563
 2019-Jan-27 14:34  m  00 57 51.701978 +13 16 48.08243
